{"type":"FeatureCollection","crs":{"type":"name","properties":{"name":"EPSG:4326"}},"features":[{"type":"Feature","id":1,"geometry":{"type":"Polygon","coordinates":[[[-0.148754029374913,51.4855616297655],[-0.14982689899216,51.4854787743261],[-0.149653649995912,51.4845719204578],[-0.149822115498182,51.4844674183367],[-0.150192212600473,51.4854547813131],[-0.163849643646074,51.483629072124],[-0.163946722763001,51.48422186115],[-0.162605570090932,51.484856130506],[-0.164572559176236,51.4853660991662],[-0.164892697140203,51.4862038482291],[-0.166558204697367,51.4880588132636],[-0.168061078855658,51.4880366323847],[-0.169125342860241,51.4885752993107],[-0.168795290769992,51.4893817564629],[-0.17027965598129,51.4909502064869],[-0.169325525652425,51.4919418277532],[-0.16980873858239,51.4927532500625],[-0.171304642994812,51.4921017128239],[-0.171840631739713,51.4929456833966],[-0.173093637361433,51.4936396335623],[-0.175333504137882,51.4943987342143],[-0.177318458979641,51.4939717451],[-0.178080317852334,51.4941559208591],[-0.178560391248993,51.4953931982375],[-0.176354874078129,51.4955477107583],[-0.175976227121112,51.4978946625087],[-0.173978118795105,51.4979090579567],[-0.174140660463081,51.4984876619761],[-0.177270309277276,51.4982279017963],[-0.177389094431135,51.4988950009036],[-0.178946842522691,51.4994986888135],[-0.179849634153243,51.5018697675758],[-0.169506158982017,51.5022604042943],[-0.162620648124346,51.5024118231471],[-0.15637794388698,51.5027949945934],[-0.152712490688828,51.5031792614138],[-0.152135867875927,51.5028933777273],[-0.151138896542818,51.5017572497973],[-0.149448480462979,51.5006144875686],[-0.147144516306355,51.4985771274326],[-0.148606221300042,51.4981990812227],[-0.147870503021238,51.4965947158735],[-0.148225814369766,51.4954627383148],[-0.147251891761357,51.494889349464],[-0.14487097441588,51.4942507309865],[-0.145642063030721,51.4937917628796],[-0.146174108248431,51.4926401108525],[-0.147724037634191,51.4910977438658],[-0.148555978875265,51.4897708382537],[-0.148578995224398,51.4888537761809],[-0.147536625215025,51.4865090052864],[-0.148575585894548,51.4865250545877],[-0.148754029374913,51.4855616297655]]]},"properties":{"FID":1,"x":527755,"y":179122,"Market":"Knightsbridge","Shape_Leng":11320.639829,"Shape__Area":8726944.2506103516,"Shape__Length":14752.307439164164}},{"type":"Feature","id":2,"geometry":{"type":"Polygon","coordinates":[[[-0.0879275545129872,51.5204800556101],[-0.0888839034693092,51.5201171629768],[-0.0925857873041878,51.5206963236765],[-0.0928106429967102,51.5217319388779],[-0.0944758672674197,51.5218770417921],[-0.0977265738222854,51.5214804884338],[-0.0978456602489928,51.5199231980972],[-0.100021728220156,51.5190894977821],[-0.0997048502985649,51.5187107411079],[-0.100876527529692,51.5177335386719],[-0.10235999162029,51.5172594142906],[-0.105861265484975,51.5181981050586],[-0.109140511125645,51.5178955533371],[-0.110674622335921,51.5181052878288],[-0.11139466183414,51.5194818288234],[-0.11113063347193,51.5200753202199],[-0.112255033343047,51.5205582921315],[-0.112777246272856,51.5214467224883],[-0.113134504653601,51.5218177315032],[-0.114568149000831,51.5244806834368],[-0.115509413628502,51.5242467886584],[-0.115889789981793,51.5253487729276],[-0.117465624339047,51.527446974898],[-0.120125068916764,51.5305330785388],[-0.12018374788164,51.530917978482],[-0.115873871082215,51.5308940529182],[-0.115763957740398,51.5312470305261],[-0.113460969348182,51.5314400673053],[-0.111604383735255,51.531140855666],[-0.11067550277221,51.5304285485387],[-0.107912009331699,51.5309485752167],[-0.108087744054103,51.5318479773024],[-0.10632847497908,51.5319025670499],[-0.106107539431378,51.5326630553558],[-0.103040161474212,51.5314290667981],[-0.0999258002354395,51.5310961071996],[-0.0988746735272912,51.5303635662257],[-0.0970063742446996,51.5307333251828],[-0.0961888203577246,51.5297487833797],[-0.0944702797795571,51.5292365897968],[-0.0898137790825899,51.528355891811],[-0.0878062233784362,51.5277711975827],[-0.08756872861386,51.5259018164157],[-0.0877778857407634,51.5258774097147],[-0.0877377211189128,51.525750088196],[-0.0879361727161267,51.5255858746884],[-0.0879278449939989,51.5246015172463],[-0.0887394471677112,51.5243622157437],[-0.0884001068793623,51.5229318647138],[-0.0886013715560239,51.5212419711401],[-0.0879275545129872,51.5204800556101]]]},"properties":{"FID":2,"x":530814,"y":182865,"Market":"Clerkenwell","Shape_Leng":9245.19057534,"Shape__Area":6099330.3230400085,"Shape__Length":11761.680543600283}},{"type":"Feature","id":3,"geometry":{"type":"Polygon","coordinates":[[[-0.127271546844383,51.4875493671096],[-0.128584020136373,51.4880646804407],[-0.131251870677261,51.4863372788424],[-0.134314995740397,51.4852899958367],[-0.138027010438122,51.4848100474458],[-0.140810154065321,51.4849087768186],[-0.143520162125753,51.4853728935442],[-0.146999344144376,51.4856071840244],[-0.147011616293014,51.4846423949306],[-0.147727821981334,51.4850555614651],[-0.148754029374913,51.4855616297655],[-0.148575585894548,51.4865250545877],[-0.147536625215025,51.4865090052864],[-0.148578995224398,51.4888537761809],[-0.148555978875265,51.4897708382537],[-0.147724037634191,51.4910977438658],[-0.146174108248431,51.4926401108525],[-0.145642063030721,51.4937917628796],[-0.14487097441588,51.4942507309865],[-0.147251891761357,51.494889349464],[-0.148225814369766,51.4954627383148],[-0.147870503021238,51.4965947158735],[-0.148606221300042,51.4981990812227],[-0.147144516306355,51.4985771274326],[-0.144536408628312,51.4993161300354],[-0.143086963192729,51.4994434110846],[-0.141557905273089,51.5000470486324],[-0.130298746689732,51.5014402513666],[-0.1276639093619,51.5011191664165],[-0.121794015481385,51.5008366066241],[-0.121811745615503,51.5007376407296],[-0.123592954551157,51.500787189777],[-0.124507496723538,51.4963643689205],[-0.124644262922345,51.494840957844],[-0.122777219093336,51.494616720885],[-0.122811043494835,51.4944237083875],[-0.124705611075058,51.4945877914934],[-0.125019673219299,51.4925467846065],[-0.125481323104509,51.4914992803675],[-0.126799619506812,51.4898928007123],[-0.128247402995214,51.48861380918],[-0.127030176901087,51.4877156931248],[-0.127271546844383,51.4875493671096]]]},"properties":{"FID":3,"x":529881,"y":178690,"Market":"Victoria","Shape_Leng":8101.75061256,"Shape__Area":6528893.0043029785,"Shape__Length":11846.098832058675}},{"type":"Feature","id":4,"geometry":{"type":"Polygon","coordinates":[[[-0.117677067542559,51.5097811566751],[-0.11658367809423,51.508487837144],[-0.116929530373454,51.5083702283034],[-0.118118906262453,51.5096728162475],[-0.120002159472051,51.5087932343204],[-0.12173975128843,51.5067849375749],[-0.120226837098812,51.5063136271722],[-0.120485960558597,51.5060884468244],[-0.121728168919788,51.5064743288273],[-0.122428380165559,51.5060393690217],[-0.128004765907178,51.5070699381272],[-0.129359433590935,51.5088865767541],[-0.1303676347585,51.5085779357232],[-0.131181974468518,51.5098620030291],[-0.131933592761072,51.5098482667842],[-0.130939428212002,51.5105886615376],[-0.131514823450289,51.511321879701],[-0.129627806577957,51.5120786933771],[-0.129060020503516,51.5126306999469],[-0.130448922679591,51.5147306034347],[-0.130161649540469,51.5160667837551],[-0.127912827315072,51.5163241634294],[-0.126413593612426,51.5170045868922],[-0.125339348931732,51.5162652587347],[-0.125146521694546,51.5154567682154],[-0.122613931887372,51.5169277380247],[-0.121509967311113,51.5171751756939],[-0.120434131729724,51.5167967247891],[-0.120043594835977,51.5156662724805],[-0.118714642366797,51.5137950108311],[-0.118471203083516,51.5132431670386],[-0.11735700152434,51.5138096356063],[-0.117036564985426,51.5138344281164],[-0.11521120563259,51.5135727191057],[-0.114943383030663,51.5129706715593],[-0.119348637429653,51.5118032939869],[-0.117677067542559,51.5097811566751]]]},"properties":{"FID":4,"x":530225,"y":180941,"Market":"Covent Garden","Shape_Leng":6233.1738977,"Shape__Area":2190611.099105835,"Shape__Length":8111.0394952903089}},{"type":"Feature","id":5,"geometry":{"type":"Polygon","coordinates":[[[-0.152135867875927,51.5028933777273],[-0.150644212760142,51.5030398655974],[-0.148348891088403,51.5036689935293],[-0.144060940659813,51.5059406684272],[-0.142912354421583,51.5067340080681],[-0.140582935853786,51.5078285738297],[-0.136459949866719,51.5091365298271],[-0.134662268049169,51.5101540218906],[-0.133516830337385,51.5101833559772],[-0.131933592761072,51.5098482667842],[-0.131181974468518,51.5098620030291],[-0.1303676347585,51.5085779357232],[-0.129359433590935,51.5088865767541],[-0.128004765907178,51.5070699381272],[-0.122428380165559,51.5060393690217],[-0.123242950101996,51.5035726149842],[-0.123573926695315,51.5010219730856],[-0.121770838153623,51.5009698258968],[-0.121794015481385,51.5008366066241],[-0.1276639093619,51.5011191664165],[-0.130298746689732,51.5014402513666],[-0.141557905273089,51.5000470486324],[-0.143086963192729,51.4994434110846],[-0.144536408628312,51.4993161300354],[-0.147144516306355,51.4985771274326],[-0.149448480462979,51.5006144875686],[-0.151138896542818,51.5017572497973],[-0.152135867875927,51.5028933777273]]]},"properties":{"FID":5,"x":529329,"y":180478,"Market":"St James's","Shape_Leng":6507.07021827,"Shape__Area":3745187.529258728,"Shape__Length":9154.2646104024152}},{"type":"Feature","id":6,"geometry":{"type":"Polygon","coordinates":[[[-0.0422562326389766,51.5097769874181],[-0.0418855239976779,51.5115225094563],[-0.0403327653447718,51.5138416307867],[-0.0402455913609288,51.5158726444071],[-0.0394152050476464,51.5177036128315],[-0.0378573157624373,51.5181874768706],[-0.0356723705833701,51.5184504521267],[-0.0330718630759748,51.5175893143954],[-0.0330117505917542,51.516267577187],[-0.032056153468659,51.5163453136853],[-0.0316651831016657,51.5172768656349],[-0.0288714769370699,51.5169797539125],[-0.0286954805119422,51.5174475155904],[-0.0258788272460606,51.5178049628288],[-0.0249976355324293,51.5182934817588],[-0.0234667483916837,51.5179519615139],[-0.0227282727914826,51.5170105709811],[-0.0216446544771998,51.5165945760789],[-0.0154007280610813,51.519126506683],[-0.0113039447212486,51.520912125894],[-0.00922132530388353,51.5203018801277],[-0.00901328783294275,51.5196926874676],[-0.00759652106256681,51.5189627275479],[-0.00637782457687308,51.517815650372],[-0.00629762483549712,51.5168246586311],[-0.0043734362849932,51.5164236104613],[-0.00349453154734647,51.5175562364312],[-0.00169340172908505,51.5179220257809],[0.00283657065125453,51.5159782329092],[0.00413143521763004,51.515101334559],[0.00225228381589204,51.5112395476671],[0.00270128203857212,51.5106100348253],[0.00409023727468139,51.5106674889135],[0.00459246187267581,51.5132271105427],[0.00589669197881903,51.5143132910256],[0.00710182039273377,51.5141304012971],[0.00792255428251565,51.5130890529175],[0.007570831228918,51.5119866828392],[0.00567298292185114,51.5097750430838],[0.00847515980080971,51.5090459060438],[0.00913345814262811,51.5083310637277],[0.00837696282661682,51.5073993400076],[0.00608844992206059,51.5080184611831],[0.00369122876725214,51.5083358885905],[-0.00207986829121865,51.5073579630996],[-0.00339959281689062,51.5066040524351],[-0.00674752777615595,51.5039083238101],[-0.00770905502884034,51.5015296997359],[-0.00725635070000408,51.4983479594908],[-0.00573218419287969,51.4959575587944],[-0.00541968507036472,51.4946890425653],[-0.00473357969087829,51.4944256464265],[-0.00315267225795424,51.4917250731536],[-0.00317562655385473,51.4902022673209],[-0.00375770915093199,51.4889681240797],[-0.00485066602539064,51.4879927778444],[-0.00649556741643664,51.4871620174132],[-0.0083335838277776,51.4866321773332],[-0.013179466459178,51.4860019207521],[-0.016349065856673,51.4861434182842],[-0.0188445478375456,51.4866121899007],[-0.0218247410189178,51.4876435953757],[-0.0249246195754722,51.489819222679],[-0.0262043548470388,51.4913948897624],[-0.0278933607899035,51.4946603703798],[-0.027476664416497,51.4978412481751],[-0.0274179359889217,51.502244142753],[-0.0268351789003418,51.5033203416605],[-0.0289445279675533,51.5064069543175],[-0.0316725152742947,51.5082249841957],[-0.0386974858002986,51.5097066487429],[-0.0422562326389766,51.5097769874181]]]},"properties":{"FID":6,"x":537820,"y":179700,"Market":"Canary Wharf","Shape_Leng":16423.4065012,"Shape__Area":18170167.257987022,"Shape__Length":23712.935904016191}},{"type":"Feature","id":7,"geometry":{"type":"Polygon","coordinates":[[[-0.131933592761072,51.5098482667842],[-0.133516830337385,51.5101833559772],[-0.133815355794013,51.510589238003],[-0.135833542384034,51.5099719892159],[-0.138169285883805,51.5104327865439],[-0.139991345624026,51.5124646536209],[-0.141301322398078,51.5145363849463],[-0.141654466380487,51.5155121736479],[-0.136700637224578,51.5162662282039],[-0.132789422693634,51.5163844566774],[-0.130658567239038,51.5167849994282],[-0.130161649540469,51.5160667837551],[-0.130448922679591,51.5147306034347],[-0.129060020503516,51.5126306999469],[-0.129627806577957,51.5120786933771],[-0.131514823450289,51.511321879701],[-0.130939428212002,51.5105886615376],[-0.131933592761072,51.5098482667842]]]},"properties":{"FID":7,"x":529280,"y":180844,"Market":"Soho","Shape_Leng":3316.52116171,"Shape__Area":1200856.3140945435,"Shape__Length":4506.7718772259559}},{"type":"Feature","id":8,"geometry":{"type":"Polygon","coordinates":[[[-0.130658567239038,51.5167849994282],[-0.13095819616376,51.5177419887019],[-0.133324424882233,51.5199305122834],[-0.136219389313339,51.5232605687203],[-0.137126920371031,51.5247672218299],[-0.13338964371701,51.5258400896484],[-0.133765154738057,51.5262754244713],[-0.129414250866944,51.5272255788974],[-0.128714589106949,51.5277711652072],[-0.124107028616436,51.5294154577572],[-0.122098920728547,51.53034632892],[-0.122477004709935,51.5307347227293],[-0.120125068916764,51.5305330785388],[-0.117465624339047,51.527446974898],[-0.115889789981793,51.5253487729276],[-0.115509413628502,51.5242467886584],[-0.114568149000831,51.5244806834368],[-0.113134504653601,51.5218177315032],[-0.113029950371867,51.5217091527552],[-0.114162151861763,51.5215525996728],[-0.11415884415527,51.5215021162297],[-0.117518387563507,51.52070931888],[-0.119047792621473,51.5206729925646],[-0.121081114801541,51.5195046149461],[-0.12042590383237,51.5179665449202],[-0.122685566485643,51.5177086724174],[-0.124781789947576,51.5172108994635],[-0.125339348931732,51.5162652587347],[-0.126413593612426,51.5170045868922],[-0.127912827315072,51.5163241634294],[-0.130161649540469,51.5160667837551],[-0.130658567239038,51.5167849994282]]]},"properties":{"FID":8,"x":530100,"y":181478,"Market":"Bloomsbury","Shape_Leng":6490.83956478,"Shape__Area":3901933.0392303467,"Shape__Length":8658.7018733484019}},{"type":"Feature","id":9,"geometry":{"type":"Polygon","coordinates":[[[-0.11150373161189,51.4964694313193],[-0.112292436146959,51.498843898727],[-0.110063790211711,51.5021272947389],[-0.104582963732753,51.5035397762397],[-0.104581847674069,51.5035799597474],[-0.103105856050377,51.5036480636073],[-0.103811032453166,51.5047308941155],[-0.104088251171788,51.5065130554332],[-0.104081755368668,51.5065169045316],[-0.10384613658988,51.5085700180919],[-0.103452974575077,51.509763181026],[-0.103090364328807,51.509759653885],[-0.103074361792324,51.5086631572789],[-0.0965301211680867,51.5084305485311],[-0.0948582554041195,51.5080859660945],[-0.0942147275276284,51.5089008813706],[-0.0939920445971438,51.5088329843548],[-0.0943395219513263,51.507943227498],[-0.0928438549598809,51.5075596756386],[-0.0920641247594745,51.5085511754964],[-0.0915251376749211,51.5084723742008],[-0.0919735306538882,51.507369405174],[-0.0883089479995078,51.5069638837763],[-0.0879438016650624,51.5080119186152],[-0.0874829827533858,51.5079592758999],[-0.0878574478628593,51.5068988969666],[-0.0862609497829681,51.5065561392545],[-0.0846617627300929,51.5066435767397],[-0.0811002684625919,51.5059081408481],[-0.077362036728573,51.5047395258085],[-0.0761764325962417,51.504576602828],[-0.0755141655462808,51.5056011167982],[-0.0752452385768265,51.5055208280239],[-0.0759249704609601,51.5043582447373],[-0.0728831953031772,51.5036454663652],[-0.0718416598646741,51.5031974546988],[-0.069985233431737,51.5017777786217],[-0.0690645255073719,51.5016178827591],[-0.0697479464105299,51.4994058985634],[-0.0716381208025609,51.4974739308773],[-0.0728595782069306,51.4981198068836],[-0.074425351848447,51.4977870945988],[-0.0736135536225788,51.4966938787195],[-0.074897491426043,51.4964378003643],[-0.0760280345660931,51.4948679051297],[-0.0722440264406146,51.4948311129655],[-0.0719824325431659,51.4940775827143],[-0.0727385600364414,51.4932163604468],[-0.0721183308962168,51.4925907965281],[-0.0652596342246738,51.4919289035961],[-0.0638269188771687,51.4919584778016],[-0.0634839048582876,51.4895928345417],[-0.0601594170234421,51.4902881058115],[-0.0606306554803382,51.4892311173223],[-0.0655400347447426,51.4889244691889],[-0.0651679771203817,51.4871730916649],[-0.0660400613996899,51.4869004253144],[-0.065976262594404,51.4847455354781],[-0.0662310747042625,51.4837976005788],[-0.0685659242779479,51.4827480162081],[-0.0718383683459933,51.4841458873229],[-0.0717803620739801,51.4855209507314],[-0.074652738233226,51.4866881295536],[-0.0772126089746621,51.4879782214178],[-0.0784417357974121,51.4867822867732],[-0.0795718985242502,51.487292916435],[-0.0775599226522559,51.4886687775421],[-0.0788600131789963,51.4889124983132],[-0.0812369582189945,51.4903191594017],[-0.0822464445177502,51.4912374634383],[-0.0859021031994303,51.4934722382532],[-0.088333239587314,51.4931088725764],[-0.0900923413884129,51.493852872712],[-0.0917713909369127,51.4935656463376],[-0.098370929075088,51.4948752651814],[-0.0989814167589316,51.4935859278484],[-0.0986562560813127,51.4923800395073],[-0.100160206728106,51.4919165271261],[-0.101515521923773,51.4920967917336],[-0.102032470222298,51.4929335884144],[-0.101915303848159,51.4948192329213],[-0.106006687658464,51.4961922593653],[-0.107257837978807,51.4950024059364],[-0.11150373161189,51.4964694313193]]]},"properties":{"FID":9,"x":533632,"y":179892,"Market":"Southbank","Shape_Leng":16106.3465541,"Shape__Area":11920824.743968964,"Shape__Length":22861.434391925064}},{"type":"Feature","id":10,"geometry":{"type":"Polygon","coordinates":[[[-0.152712490688828,51.5031792614138],[-0.152228489053471,51.5042102451068],[-0.152164144359745,51.5058008076612],[-0.153526868170388,51.5073028220676],[-0.154395163605841,51.5078346685352],[-0.15649364796343,51.5072755051605],[-0.159061184526024,51.5097957032092],[-0.157497505405502,51.5103263661689],[-0.159004861784922,51.5133444873583],[-0.156040440014237,51.5138127724416],[-0.150221614136115,51.5142524518892],[-0.145567509233103,51.514843134703],[-0.141301322398078,51.5145363849463],[-0.139991345624026,51.5124646536209],[-0.138169285883805,51.5104327865439],[-0.135833542384034,51.5099719892159],[-0.133815355794013,51.510589238003],[-0.133516830337385,51.5101833559772],[-0.134662268049169,51.5101540218906],[-0.136459949866719,51.5091365298271],[-0.140582935853786,51.5078285738297],[-0.142912354421583,51.5067340080681],[-0.144060940659813,51.5059406684272],[-0.148348891088403,51.5036689935293],[-0.150644212760142,51.5030398655974],[-0.152135867875927,51.5028933777273],[-0.152712490688828,51.5031792614138]]]},"properties":{"FID":10,"x":529209,"y":180799,"Market":"Mayfair","Shape_Leng":5711.27490076,"Shape__Area":3236696.1822357178,"Shape__Length":8474.69118319723}},{"type":"Feature","id":11,"geometry":{"type":"Polygon","coordinates":[[[-0.159004861784922,51.5133444873583],[-0.157497505405502,51.5103263661689],[-0.159061184526024,51.5097957032092],[-0.15649364796343,51.5072755051605],[-0.154395163605841,51.5078346685352],[-0.153526868170388,51.5073028220676],[-0.152164144359745,51.5058008076612],[-0.152228489053471,51.5042102451068],[-0.152712490688828,51.5031792614138],[-0.15637794388698,51.5027949945934],[-0.162620648124346,51.5024118231471],[-0.169506158982017,51.5022604042943],[-0.179849634153243,51.5018697675758],[-0.184396690055166,51.5020803105579],[-0.187715933943139,51.5096107882073],[-0.192384933417884,51.508955107792],[-0.192659638531438,51.509555550948],[-0.194052323256074,51.5097382805972],[-0.196745862931209,51.5096557543097],[-0.197756227867558,51.5118311900574],[-0.196667298157251,51.5132522034265],[-0.19542543333705,51.5141422480663],[-0.195188149913122,51.5149294363445],[-0.196858523701849,51.515472223964],[-0.199266927026997,51.5153242126423],[-0.199229725671273,51.5162674863554],[-0.200197354824013,51.5172002029271],[-0.198721253483029,51.5177850797177],[-0.198608851717097,51.5187243217701],[-0.200266171846295,51.52083271216],[-0.197011660259875,51.5205198694964],[-0.19657383881156,51.5212597462403],[-0.19085503283344,51.5226829683444],[-0.189028396443291,51.5227578953606],[-0.18352660676743,51.5211360957543],[-0.181382652687205,51.5210300584904],[-0.181360732611665,51.5219591813712],[-0.1764825661175,51.5248083945918],[-0.170987959326794,51.5212264128687],[-0.168376065502969,51.5194718229663],[-0.167535459293958,51.5186196667643],[-0.16552802319967,51.5175125572588],[-0.163205339654667,51.5152374514473],[-0.161260900170362,51.5139531629082],[-0.160103241571278,51.5141276628614],[-0.159004861784922,51.5133444873583]]]},"properties":{"FID":11,"x":525364,"y":181456,"Market":"Paddington","Shape_Leng":12279.4283182,"Shape__Area":13317056.976531982,"Shape__Length":17315.425081492416}},{"type":"Feature","id":12,"geometry":{"type":"Polygon","coordinates":[[[-0.0879361727161267,51.5255858746884],[-0.0877377211189128,51.525750088196],[-0.0877778857407634,51.5258774097147],[-0.08756872861386,51.5259018164157],[-0.0878062233784362,51.5277711975827],[-0.0898137790825899,51.528355891811],[-0.0944702797795571,51.5292365897968],[-0.0961888203577246,51.5297487833797],[-0.0970063742446996,51.5307333251828],[-0.0988746735272912,51.5303635662257],[-0.0999258002354395,51.5310961071996],[-0.103040161474212,51.5314290667981],[-0.106107539431378,51.5326630553558],[-0.104959526960556,51.534414815991],[-0.104201205121456,51.5345455027728],[-0.103012081941984,51.5371600639858],[-0.103147242850923,51.5376466277897],[-0.102388876045723,51.5378655839296],[-0.102257640677522,51.5395570764979],[-0.103171460694284,51.5427773985581],[-0.10290719491104,51.5431847743579],[-0.103165232889125,51.5460037847469],[-0.09232225266976,51.538615244398],[-0.0901557175122889,51.5377184845205],[-0.091032605070609,51.5372341744177],[-0.0894801953546676,51.5361166210852],[-0.0877014775410885,51.5370249327545],[-0.0866097860127866,51.5371731761012],[-0.0857116276894203,51.5395205451371],[-0.0850481564472148,51.5394871515109],[-0.0846415055010539,51.5412660096187],[-0.0812794287026009,51.5404632837536],[-0.0787123894651813,51.5401806978809],[-0.0767989289273601,51.5406069333633],[-0.077654363158274,51.5391720407571],[-0.0778648063156879,51.5370783093166],[-0.0769006485460295,51.5361604522431],[-0.077700521761642,51.5343717015928],[-0.0778630589329623,51.5322912963063],[-0.0770911456398267,51.5322441241671],[-0.0773126216801074,51.5302464951796],[-0.0782474777388416,51.5302823115795],[-0.0783646827838425,51.5290431645105],[-0.0789585788752447,51.5284242223001],[-0.0760874896458859,51.5280843631029],[-0.0746496490619961,51.5297921531854],[-0.0722798113641829,51.5308361662561],[-0.0653628413220417,51.5313181462155],[-0.060178874755195,51.5321040232821],[-0.0597005685263525,51.5313170391501],[-0.0585697115229209,51.5312775616102],[-0.0572025000952294,51.5302029140333],[-0.0587638382804698,51.5300870813538],[-0.0612266595826441,51.529253175094],[-0.0609921190909972,51.5267885551477],[-0.0602133583597606,51.5241782854995],[-0.0588899789892707,51.5245308251375],[-0.0571269336610385,51.5244808686972],[-0.0577613136336481,51.5260079903765],[-0.0551341610126883,51.5258529832287],[-0.0540608893984995,51.524204033989],[-0.0540080893018171,51.5231313676186],[-0.055203988872961,51.522582313523],[-0.0560780138891914,51.5210423378337],[-0.0580436503940973,51.5201320251729],[-0.0622484899757865,51.5190759288111],[-0.0677791361981122,51.5174786663074],[-0.0692341853093694,51.5174400575127],[-0.0689310148543996,51.5163978889515],[-0.0698971583271373,51.5160803518268],[-0.0712597436422016,51.5163784006427],[-0.0717620653669542,51.5155202927274],[-0.0741608594360628,51.5175405639459],[-0.0744486379941804,51.5184857325306],[-0.0768735528721436,51.5184846128747],[-0.0781069451793428,51.5187715622578],[-0.0787781469938409,51.5199469437965],[-0.0785068988742523,51.5217210813628],[-0.0792614678424002,51.5218005949216],[-0.080207028531504,51.5199754639965],[-0.0816110734921835,51.5198116246069],[-0.0879275545129872,51.5204800556101],[-0.0886013715560239,51.5212419711401],[-0.0884001068793623,51.5229318647138],[-0.0887394471677112,51.5243622157437],[-0.0879278449939989,51.5246015172463],[-0.0879361727161267,51.5255858746884]]]},"properties":{"FID":12,"x":534435,"y":182011,"Market":"Shoreditch","Shape_Leng":20529.0699247,"Shape__Area":12510896.566158295,"Shape__Length":24704.401467346568}},{"type":"Feature","id":13,"geometry":{"type":"Polygon","coordinates":[[[-0.0755358095299243,51.5068610633874],[-0.0813160742773675,51.5083505709222],[-0.0872224311702325,51.5086852832993],[-0.0874829827533858,51.5079592758999],[-0.0879438016650624,51.5080119186152],[-0.0875946209949348,51.5090017790089],[-0.0907412490093975,51.5091444735387],[-0.0915251376749211,51.5084723742008],[-0.0920641247594745,51.5085511754964],[-0.0917889969645671,51.5093148950664],[-0.0934182429575117,51.5097217582526],[-0.0939920445971438,51.5088329843548],[-0.0942147275276284,51.5089008813706],[-0.0937661223086366,51.5096682584834],[-0.0953585284732412,51.5102155490084],[-0.0984332053280923,51.5107361566484],[-0.102850141920442,51.5108172161417],[-0.103090364328807,51.509759653885],[-0.103452974575077,51.509763181026],[-0.104190199218294,51.5097701561678],[-0.10464949377905,51.5097745232757],[-0.10461803369526,51.5107042981649],[-0.105866020200608,51.510853285251],[-0.104512547715842,51.5114765397106],[-0.105023198961419,51.5119932640779],[-0.104586227372465,51.5152092891774],[-0.103652675330636,51.5152606350703],[-0.103842792910541,51.5165429819731],[-0.106631831593688,51.5172181435026],[-0.105861265484975,51.5181981050586],[-0.10235999162029,51.5172594142906],[-0.100876527529692,51.5177335386719],[-0.0997048502985649,51.5187107411079],[-0.100021728220156,51.5190894977821],[-0.0978456602489928,51.5199231980972],[-0.0977265738222854,51.5214804884338],[-0.0944758672674197,51.5218770417921],[-0.0928106429967102,51.5217319388779],[-0.0925857873041878,51.5206963236765],[-0.0888839034693092,51.5201171629768],[-0.0879275545129872,51.5204800556101],[-0.0816110734921835,51.5198116246069],[-0.080207028531504,51.5199754639965],[-0.0792614678424002,51.5218005949216],[-0.0785068988742523,51.5217210813628],[-0.0787781469938409,51.5199469437965],[-0.0781069451793428,51.5187715622578],[-0.0793704072184482,51.5179429736893],[-0.0773332530271773,51.5172962100521],[-0.0770289521244081,51.5167392356273],[-0.0780152017401292,51.515858198597],[-0.0768931949649527,51.5151010980373],[-0.0759281243833811,51.5158291037302],[-0.0737983274308363,51.5142718664535],[-0.0744481811386208,51.5138360037287],[-0.0740277831556,51.5107335710975],[-0.0725123023008791,51.5098331356907],[-0.0715516177129416,51.5100362511721],[-0.0713346086052411,51.5083519981462],[-0.0737526652532665,51.5092359903487],[-0.0743885740733958,51.5074918514678],[-0.0755358095299243,51.5068610633874]]]},"properties":{"FID":13,"x":532086,"y":181793,"Market":"City Core","Shape_Leng":11978.6456933,"Shape__Area":6391469.7314796448,"Shape__Length":14614.825297953845}},{"type":"Feature","id":14,"geometry":{"type":"Polygon","coordinates":[[[-0.0422562326389766,51.5097769874181],[-0.0460849910294883,51.5093548348578],[-0.0480860086623238,51.5085768943083],[-0.05532958908924,51.5046033423704],[-0.0568234637318028,51.5035729432368],[-0.0598491518168771,51.5027957743056],[-0.0642487818557242,51.5034622699678],[-0.0697063788462629,51.5048766364476],[-0.0716333957645361,51.5058793508514],[-0.0745917767890205,51.5064596276098],[-0.0752452385768265,51.5055208280239],[-0.0755141655462808,51.5056011167982],[-0.0755358095299243,51.5068610633874],[-0.0743885740733958,51.5074918514678],[-0.0737526652532665,51.5092359903487],[-0.0713346086052411,51.5083519981462],[-0.0715516177129416,51.5100362511721],[-0.0725123023008791,51.5098331356907],[-0.0740277831556,51.5107335710975],[-0.0744481811386208,51.5138360037287],[-0.0737983274308363,51.5142718664535],[-0.0759281243833811,51.5158291037302],[-0.0768931949649527,51.5151010980373],[-0.0780152017401292,51.515858198597],[-0.0770289521244081,51.5167392356273],[-0.0773332530271773,51.5172962100521],[-0.0793704072184482,51.5179429736893],[-0.0781069451793428,51.5187715622578],[-0.0768735528721436,51.5184846128747],[-0.0744486379941804,51.5184857325306],[-0.0741608594360628,51.5175405639459],[-0.0717620653669542,51.5155202927274],[-0.0712597436422016,51.5163784006427],[-0.0698971583271373,51.5160803518268],[-0.0689310148543996,51.5163978889515],[-0.0692341853093694,51.5174400575127],[-0.0677791361981122,51.5174786663074],[-0.0622484899757865,51.5190759288111],[-0.0580436503940973,51.5201320251729],[-0.0560780138891914,51.5210423378337],[-0.055203988872961,51.522582313523],[-0.0540080893018171,51.5231313676186],[-0.0540608893984995,51.524204033989],[-0.0526782015377307,51.5248896798149],[-0.0495906535857671,51.5255888667328],[-0.0478594424592416,51.5262166987417],[-0.0431483394242491,51.5269613248054],[-0.041588049848599,51.5266359168141],[-0.0399229218053279,51.5268894905576],[-0.0370963795941748,51.5242373601661],[-0.0365693930630187,51.5232253413765],[-0.0361483988294822,51.5188744824714],[-0.0356723705833701,51.5184504521267],[-0.0378573157624373,51.5181874768706],[-0.0394152050476464,51.5177036128315],[-0.0402455913609288,51.5158726444071],[-0.0403327653447718,51.5138416307867],[-0.0418855239976779,51.5115225094563],[-0.0422562326389766,51.5097769874181]]]},"properties":{"FID":14,"x":535323,"y":181717,"Market":"Aldgate & Whitechapel","Shape_Leng":13066.0835839,"Shape__Area":11323286.189201355,"Shape__Length":17384.392627043759}},{"type":"Feature","id":15,"geometry":{"type":"Polygon","coordinates":[[[-0.141654466380487,51.5155121736479],[-0.141301322398078,51.5145363849463],[-0.145567509233103,51.514843134703],[-0.150221614136115,51.5142524518892],[-0.156040440014237,51.5138127724416],[-0.159004861784922,51.5133444873583],[-0.160103241571278,51.5141276628614],[-0.161260900170362,51.5139531629082],[-0.163205339654667,51.5152374514473],[-0.16552802319967,51.5175125572588],[-0.167535459293958,51.5186196667643],[-0.168376065502969,51.5194718229663],[-0.170987959326794,51.5212264128687],[-0.169076337902652,51.522342170255],[-0.166935764373989,51.5229562804081],[-0.168006926178634,51.5241186856289],[-0.163996991268107,51.5251610277593],[-0.165484585045533,51.5268210908208],[-0.164917326873081,51.5270941411817],[-0.163203336864456,51.5259238911747],[-0.162612035317125,51.526366013181],[-0.158362755736562,51.5241792891429],[-0.156735947805714,51.5239296184572],[-0.153187398379657,51.5228278266429],[-0.152633444777621,51.523690764817],[-0.149984978224097,51.5240225543974],[-0.148876935222347,51.523780955127],[-0.144561138185907,51.5238842044925],[-0.145560779606228,51.5227211652496],[-0.143883950483882,51.5192294790573],[-0.142733510742858,51.518914780193],[-0.141654466380487,51.5155121736479]]]},"properties":{"FID":15,"x":528993,"y":181204,"Market":"North of Oxford Street","Shape_Leng":7750.50951649,"Shape__Area":4747075.4226989746,"Shape__Length":10252.817193130304}},{"type":"Feature","id":16,"geometry":{"type":"Polygon","coordinates":[[[-0.130658567239038,51.5167849994282],[-0.132789422693634,51.5163844566774],[-0.136700637224578,51.5162662282039],[-0.141654466380487,51.5155121736479],[-0.142733510742858,51.518914780193],[-0.143883950483882,51.5192294790573],[-0.145560779606228,51.5227211652496],[-0.144561138185907,51.5238842044925],[-0.141682115137428,51.524213598279],[-0.138667647893612,51.5250040223178],[-0.137126920371031,51.5247672218299],[-0.136219389313339,51.5232605687203],[-0.133324424882233,51.5199305122834],[-0.13095819616376,51.5177419887019],[-0.130658567239038,51.5167849994282]]]},"properties":{"FID":16,"x":529346,"y":181482,"Market":"Fitzrovia","Shape_Leng":4218.48558576,"Shape__Area":1703144.1042327881,"Shape__Length":5377.882349653456}},{"type":"Feature","id":17,"geometry":{"type":"Polygon","coordinates":[[[-0.131521666391734,51.5355824831452],[-0.132421838297148,51.5353248714457],[-0.133975560123929,51.5357579183933],[-0.136815042680041,51.5351700720412],[-0.139335577974521,51.5343730271935],[-0.139275494268588,51.532636663851],[-0.140828229539125,51.5321012111021],[-0.142551401625838,51.5332799363201],[-0.144050397907506,51.5334924488175],[-0.14493083868723,51.5344279299051],[-0.147036351246584,51.5356815857366],[-0.146804300078315,51.5361348755241],[-0.149847569909355,51.5372933435131],[-0.150527979882327,51.5364956115832],[-0.152002386001243,51.5373040229623],[-0.153272476043867,51.5374983385775],[-0.15485613360363,51.5372654276574],[-0.155245422238409,51.538572834169],[-0.15745755032566,51.540027371566],[-0.15892843020282,51.5405960587611],[-0.156574223621476,51.5424027337992],[-0.156923076938426,51.5429680143624],[-0.156046684007208,51.5437225167808],[-0.154748648431337,51.5433444013231],[-0.152705321293467,51.543838692102],[-0.153015613479738,51.5449442080089],[-0.152033322679642,51.5458826559599],[-0.145866701986677,51.5460529884547],[-0.143687859606985,51.546488075964],[-0.143185025268679,51.5459696725624],[-0.14116801319318,51.546448268373],[-0.139243553946812,51.5456016591893],[-0.135167661858077,51.5452247227428],[-0.133597659604277,51.5456376545542],[-0.132340683475718,51.5465366879179],[-0.132673178124605,51.5475791442622],[-0.130718130237483,51.5481400855965],[-0.130040278835736,51.5488451495841],[-0.127941432051387,51.5479733692756],[-0.127383458479756,51.5472089536303],[-0.126384543711652,51.5432405925794],[-0.125231057067595,51.5411193346896],[-0.131037466006205,51.5411541771236],[-0.131764621839807,51.5405368249146],[-0.131403096175916,51.539540019956],[-0.129401964329134,51.5363179684995],[-0.131521666391734,51.5355824831452]]]},"properties":{"FID":17,"x":528476,"y":184302,"Market":"Camden","Shape_Leng":9430.12541613,"Shape__Area":5874725.1106491089,"Shape__Length":12302.974178841629}},{"type":"Feature","id":18,"geometry":{"type":"Polygon","coordinates":[[[-0.105866020200608,51.510853285251],[-0.110541731315777,51.5108807883178],[-0.114322849020198,51.510628699355],[-0.117677067542559,51.5097811566751],[-0.119348637429653,51.5118032939869],[-0.114943383030663,51.5129706715593],[-0.11521120563259,51.5135727191057],[-0.117036564985426,51.5138344281164],[-0.11735700152434,51.5138096356063],[-0.118471203083516,51.5132431670386],[-0.118714642366797,51.5137950108311],[-0.120043594835977,51.5156662724805],[-0.120434131729724,51.5167967247891],[-0.121509967311113,51.5171751756939],[-0.122613931887372,51.5169277380247],[-0.125146521694546,51.5154567682154],[-0.125339348931732,51.5162652587347],[-0.124781789947576,51.5172108994635],[-0.122685566485643,51.5177086724174],[-0.12042590383237,51.5179665449202],[-0.121081114801541,51.5195046149461],[-0.119047792621473,51.5206729925646],[-0.117518387563507,51.52070931888],[-0.11415884415527,51.5215021162297],[-0.114162151861763,51.5215525996728],[-0.113029950371867,51.5217091527552],[-0.112777246272856,51.5214467224883],[-0.112255033343047,51.5205582921315],[-0.11113063347193,51.5200753202199],[-0.11139466183414,51.5194818288234],[-0.110674622335921,51.5181052878288],[-0.109140511125645,51.5178955533371],[-0.105861265484975,51.5181981050586],[-0.106631831593688,51.5172181435026],[-0.103842792910541,51.5165429819731],[-0.103652675330636,51.5152606350703],[-0.104586227372465,51.5152092891774],[-0.105023198961419,51.5119932640779],[-0.104512547715842,51.5114765397106],[-0.105866020200608,51.510853285251]]]},"properties":{"FID":18,"x":531123,"y":181374,"Market":"Midtown","Shape_Leng":6832.19598651,"Shape__Area":2702330.2811279297,"Shape__Length":9290.4695682892125}},{"type":"Feature","id":19,"geometry":{"type":"Polygon","coordinates":[[[-0.163849643646074,51.483629072124],[-0.1691430702964,51.4829146120198],[-0.175867769781689,51.4815705068734],[-0.177759721234111,51.4802690538738],[-0.178924008735976,51.4787600211581],[-0.180327249702771,51.4740909452409],[-0.18200925262488,51.4744130752033],[-0.183899909053537,51.4763129101128],[-0.186237233561428,51.4795939130287],[-0.18819717286118,51.480878847281],[-0.194496079330577,51.486493742892],[-0.198301033565826,51.4881217217401],[-0.201352340637982,51.4907452473953],[-0.20240802511023,51.4916855956138],[-0.199641741073435,51.493102219392],[-0.201223972308412,51.4934242441336],[-0.203326941585033,51.4945679920192],[-0.202156170870524,51.4955001006492],[-0.203146041156799,51.4968938699562],[-0.20417463714972,51.497300866242],[-0.200882239823443,51.4982936800094],[-0.200574958567415,51.499276324243],[-0.201523346725025,51.5002037051369],[-0.202395797028373,51.5000308104736],[-0.202923025477219,51.5010448581338],[-0.204733396728841,51.5005509019027],[-0.205039408142113,51.5018782661691],[-0.204433465631894,51.5022096177797],[-0.203412712626516,51.5023948196653],[-0.201999182516204,51.5019073916129],[-0.200753128653901,51.5009568405858],[-0.198909415037406,51.4989804320014],[-0.1927982231594,51.5011794731542],[-0.190716282730193,51.502074410106],[-0.188984386320328,51.5023814746254],[-0.184396690055166,51.5020803105579],[-0.179849634153243,51.5018697675758],[-0.178946842522691,51.4994986888135],[-0.177389094431135,51.4988950009036],[-0.177270309277276,51.4982279017963],[-0.174140660463081,51.4984876619761],[-0.173978118795105,51.4979090579567],[-0.175976227121112,51.4978946625087],[-0.176354874078129,51.4955477107583],[-0.178560391248993,51.4953931982375],[-0.178080317852334,51.4941559208591],[-0.177318458979641,51.4939717451],[-0.175333504137882,51.4943987342143],[-0.173093637361433,51.4936396335623],[-0.171840631739713,51.4929456833966],[-0.171304642994812,51.4921017128239],[-0.16980873858239,51.4927532500625],[-0.169325525652425,51.4919418277532],[-0.17027965598129,51.4909502064869],[-0.168795290769992,51.4893817564629],[-0.169125342860241,51.4885752993107],[-0.168061078855658,51.4880366323847],[-0.166558204697367,51.4880588132636],[-0.164892697140203,51.4862038482291],[-0.164572559176236,51.4853660991662],[-0.162605570090932,51.484856130506],[-0.163946722763001,51.48422186115],[-0.163849643646074,51.483629072124]]]},"properties":{"FID":19,"x":526424,"y":177418,"Market":"Kensington","Shape_Leng":15011.9871628,"Shape__Area":11604967.022003174,"Shape__Length":18999.329262140247}},{"type":"Feature","id":20,"geometry":{"type":"Polygon","coordinates":[[[-0.131521666391734,51.5355824831452],[-0.130045145067356,51.5350011307976],[-0.129718723540236,51.5341939371005],[-0.127949738189841,51.5328409655382],[-0.126757660737383,51.5303378402192],[-0.125358735617112,51.5306973846766],[-0.124126827191276,51.5302293621954],[-0.122477004709935,51.5307347227293],[-0.122098920728547,51.53034632892],[-0.124107028616436,51.5294154577572],[-0.128714589106949,51.5277711652072],[-0.129414250866944,51.5272255788974],[-0.133765154738057,51.5262754244713],[-0.13338964371701,51.5258400896484],[-0.137126920371031,51.5247672218299],[-0.138667647893612,51.5250040223178],[-0.141682115137428,51.524213598279],[-0.144561138185907,51.5238842044925],[-0.148876935222347,51.523780955127],[-0.149984978224097,51.5240225543974],[-0.152633444777621,51.523690764817],[-0.153187398379657,51.5228278266429],[-0.156735947805714,51.5239296184572],[-0.158362755736562,51.5241792891429],[-0.162612035317125,51.526366013181],[-0.163203336864456,51.5259238911747],[-0.164917326873081,51.5270941411817],[-0.163347543154543,51.5282921073949],[-0.163441244417868,51.5289411157399],[-0.16483578624252,51.5300089140802],[-0.166449954201994,51.5295529272258],[-0.166445972903261,51.5309449473515],[-0.167008961993929,51.5317498900454],[-0.165458950769903,51.5337218631735],[-0.164529379127487,51.5345148826557],[-0.161083447742897,51.535927435203],[-0.15485613360363,51.5372654276574],[-0.153272476043867,51.5374983385775],[-0.152002386001243,51.5373040229623],[-0.150527979882327,51.5364956115832],[-0.149847569909355,51.5372933435131],[-0.146804300078315,51.5361348755241],[-0.147036351246584,51.5356815857366],[-0.14493083868723,51.5344279299051],[-0.144050397907506,51.5334924488175],[-0.142551401625838,51.5332799363201],[-0.140828229539125,51.5321012111021],[-0.139275494268588,51.532636663851],[-0.139335577974521,51.5343730271935],[-0.136815042680041,51.5351700720412],[-0.133975560123929,51.5357579183933],[-0.132421838297148,51.5353248714457],[-0.131521666391734,51.5355824831452]]]},"properties":{"FID":20,"x":529611,"y":183085,"Market":"Euston","Shape_Leng":10513.6158796,"Shape__Area":8006305.4298477173,"Shape__Length":13990.4418047469}},{"type":"Feature","id":21,"geometry":{"type":"Polygon","coordinates":[[[-0.0178578800370701,51.5540433254392],[-0.0169509407332953,51.5515778583315],[-0.0129370011416654,51.5520948318111],[-0.0108870603894502,51.5526218812948],[-0.00877013633265733,51.5538728040867],[-0.00742020807609833,51.5554567629193],[-0.00594219657506301,51.5567117425529],[-0.0049461929124277,51.5552487623206],[-0.00516722828490401,51.5543588220021],[-0.0046071655881974,51.553306813059],[-0.00135525843836604,51.5539958340406],[-0.000368291163681533,51.5536358660025],[0.00207562189245891,51.5539668228107],[0.0032942257479931,51.5534087754946],[0.00457364805544103,51.5534907567931],[0.00535338904774108,51.5516762747403],[0.00252392583854544,51.5513678801236],[0.00244370901003776,51.5519948667697],[-0.000352294922436158,51.5517199044501],[-0.0036632308733715,51.5509179223243],[-0.00405240349556379,51.5511643086859],[-0.00650366491214527,51.550600866337],[-0.00496205785265147,51.5488599901964],[-0.00386785541712697,51.5467569444775],[-0.0032629642144002,51.5445613486274],[-0.00334532232869833,51.5426800523426],[-0.00442479746635627,51.5414208440967],[-0.00439788255619078,51.5392447923133],[-0.00411144938385632,51.5387259572372],[-0.00249824369893759,51.5386312532298],[-0.00161779302669629,51.5378093987848],[-0.000793963670446374,51.5380131006241],[0.00104962404094522,51.5362567417553],[0.000795627616184902,51.5338347442781],[0.0010798601474562,51.5317118334344],[0.000797472125668719,51.5306316379398],[-0.000800853376631494,51.5281696278261],[-0.00234488680700906,51.5271720548465],[-0.00374205914863524,51.5268999793506],[-0.00384937524842144,51.528101621093],[-0.00524261485475108,51.5296712555241],[-0.0097369471023967,51.5281835079626],[-0.0108788855520743,51.5294142904372],[-0.0131748871112904,51.5297013297526],[-0.0175258026736174,51.5315362767778],[-0.0182277648993932,51.5325602394635],[-0.017108303205589,51.534911997191],[-0.0172433876721811,51.5367633541455],[-0.019341817171096,51.5384612435916],[-0.0190137786628952,51.5391020878911],[-0.0204009163691694,51.5393796528488],[-0.0199001837464152,51.5413804753287],[-0.0211728701318066,51.5425575305057],[-0.0207004508650925,51.5435057396982],[-0.0165049372529893,51.5432799792877],[-0.0173689474189587,51.5472349170578],[-0.0200519218586805,51.5470009080655],[-0.0223398268215078,51.5479679904305],[-0.0204224695212929,51.5492227542268],[-0.0204894123564259,51.5514091787906],[-0.0184486950511769,51.5536944244582],[-0.0178578800370701,51.5540433254392]]]},"properties":{"FID":21,"x":538490,"y":184185,"Market":"Stratford","Shape_Leng":11846.0262333,"Shape__Area":8312472.1073489189,"Shape__Length":18300.676921052276}},{"type":"Feature","id":22,"geometry":{"type":"Polygon","coordinates":[[[-0.201352340637982,51.4907452473953],[-0.202277828458989,51.4902580711531],[-0.202441157033718,51.4893847799837],[-0.199993046841598,51.486833741484],[-0.200015761018506,51.4863021585178],[-0.205241783481483,51.4849169948235],[-0.204986876043449,51.4844347405709],[-0.207379822720611,51.4839327614878],[-0.208733797027037,51.4839182113564],[-0.211437791320975,51.4830522253799],[-0.214140718119609,51.4828461978938],[-0.216726792407485,51.4836442113113],[-0.218925268786052,51.4839840884949],[-0.219357393029213,51.483353268039],[-0.222947906620561,51.4823020684858],[-0.224106654298623,51.4824421549815],[-0.224984183073559,51.4842375956886],[-0.22711333251425,51.4870377877638],[-0.22883229757241,51.4887588023769],[-0.233111947258521,51.4902789102435],[-0.234160085519477,51.490410576387],[-0.238368280471718,51.4903111509389],[-0.241589930830571,51.489867217698],[-0.243492639073963,51.489135818863],[-0.245610115314548,51.4902115968877],[-0.245311990056223,51.4938561156672],[-0.245838071869457,51.4949570612194],[-0.247446960808531,51.4949811144869],[-0.248430073588963,51.496503128017],[-0.249777698681783,51.4975132078683],[-0.244348297236058,51.4991874118696],[-0.242559315459971,51.4984463750002],[-0.241717156121808,51.4992322295838],[-0.233788362442908,51.5007538294257],[-0.235014426174757,51.5038013242718],[-0.235447985735902,51.5040921964977],[-0.236017453542615,51.5060014841812],[-0.235441441369403,51.5064482448906],[-0.23342655619058,51.5064237572507],[-0.228566666618349,51.5059368346173],[-0.224949786703235,51.5051728524452],[-0.223531829230467,51.5063339077837],[-0.221393770206305,51.5086002101316],[-0.220039767121534,51.5074963013133],[-0.217990812026301,51.5076922725803],[-0.217124826949146,51.5063002479581],[-0.217917757398538,51.5061022954846],[-0.216839776934137,51.5042253699049],[-0.214957060619781,51.5038797478521],[-0.213451849123487,51.5048543449521],[-0.211486456334853,51.5057069256342],[-0.209666576551228,51.5053549849446],[-0.207966607872606,51.5043335745349],[-0.206129205698232,51.5046719120791],[-0.204926048598224,51.5036233538348],[-0.204433465631894,51.5022096177797],[-0.205039408142113,51.5018782661691],[-0.204733396728841,51.5005509019027],[-0.202923025477219,51.5010448581338],[-0.202395797028373,51.5000308104736],[-0.201523346725025,51.5002037051369],[-0.200574958567415,51.499276324243],[-0.200882239823443,51.4982936800094],[-0.20417463714972,51.497300866242],[-0.203146041156799,51.4968938699562],[-0.202156170870524,51.4955001006492],[-0.203326941585033,51.4945679920192],[-0.201223972308412,51.4934242441336],[-0.199641741073435,51.493102219392],[-0.20240802511023,51.4916855956138],[-0.201352340637982,51.4907452473953]]]},"properties":{"FID":22,"x":524502,"y":179176,"Market":"Hammersmith","Shape_Leng":15427.0872411,"Shape__Area":15555233.113464355,"Shape__Length":20321.641382947364}},{"type":"Feature","id":23,"geometry":{"type":"Polygon","coordinates":[[[-0.149653649995912,51.4845719204578],[-0.149245515168332,51.4836064298929],[-0.147750619795204,51.4836137512737],[-0.147727821981334,51.4850555614651],[-0.147011616293014,51.4846423949306],[-0.147024101580996,51.4836108140878],[-0.139980810965596,51.4827336252566],[-0.136655974193786,51.4828004053145],[-0.132000878237875,51.4837858994997],[-0.128262062843874,51.4851499327233],[-0.125727685184472,51.4868041537887],[-0.127271546844383,51.4875493671096],[-0.127030176901087,51.4877156931248],[-0.125656527226909,51.487149310892],[-0.124449950904477,51.4878228770242],[-0.122147240402796,51.4918991225465],[-0.121491577074551,51.4939664480931],[-0.119661463905402,51.493757337731],[-0.118914836850195,51.4921328374605],[-0.119981888753102,51.4910446308051],[-0.121662584960291,51.4904153841627],[-0.122388478145695,51.4891757829361],[-0.122616591182691,51.4865542690643],[-0.123084311491709,51.4864200740273],[-0.124599333692231,51.4844167118618],[-0.125518726807741,51.4843876313841],[-0.126969216356201,51.4822043958163],[-0.124677587300766,51.4811748231596],[-0.125398579181024,51.4802691024372],[-0.123981411313025,51.4787869108873],[-0.123902010169559,51.4765319372991],[-0.122923483931572,51.4745721877563],[-0.124616212168405,51.474203894694],[-0.125497368808453,51.4745841478402],[-0.12751318928224,51.4746841416598],[-0.128395390934486,51.4740736917475],[-0.129428565375918,51.4722679960712],[-0.134252155612444,51.4692142644268],[-0.137317488511258,51.4689833248206],[-0.141605016258438,51.4728872107762],[-0.141101055069612,51.4733073254728],[-0.142262841556828,51.4750561309357],[-0.143802056419702,51.4762870537046],[-0.146724260416249,51.4750602965955],[-0.147947763778234,51.4752302109056],[-0.147919682447366,51.4759352101419],[-0.149064725356766,51.4774046331174],[-0.14869570564224,51.4779792000801],[-0.149822115498182,51.4844674183367],[-0.149653649995912,51.4845719204578]]]},"properties":{"FID":23,"x":531044,"y":179387,"Market":"Vauxhall, Nine Elms and Battersea","Shape_Leng":10777.7999998,"Shape__Area":5755512.1913604736,"Shape__Length":15439.209326027167}},{"type":"Feature","id":24,"geometry":{"type":"Polygon","coordinates":[[[-0.11150373161189,51.4964694313193],[-0.112337114466186,51.495857325755],[-0.114570535801533,51.4957379083778],[-0.116156276191134,51.4953549779499],[-0.117348975974437,51.4936048118126],[-0.117956807060978,51.4940420424064],[-0.119661463905402,51.493757337731],[-0.121491577074551,51.4939664480931],[-0.122811043494835,51.4944237083875],[-0.122777219093336,51.494616720885],[-0.12135690809481,51.4944593071514],[-0.120077492082544,51.5004853737011],[-0.121811745615503,51.5007376407296],[-0.121794015481385,51.5008366066241],[-0.121770838153623,51.5009698258968],[-0.120117461551558,51.5009228372192],[-0.119241179237008,51.5042998049921],[-0.118638463494221,51.5055174483716],[-0.120485960558597,51.5060884468244],[-0.120226837098812,51.5063136271722],[-0.118089005603053,51.5059924729743],[-0.116166353994004,51.507518129658],[-0.116929530373454,51.5083702283034],[-0.11658367809423,51.508487837144],[-0.115785934473251,51.5075867245478],[-0.110919232536503,51.5084707239448],[-0.109902934772549,51.5082770675327],[-0.107691960515524,51.5086339167219],[-0.104723697740383,51.5086364213338],[-0.10464949377905,51.5097745232757],[-0.104190199218294,51.5097701561678],[-0.10384613658988,51.5085700180919],[-0.104081755368668,51.5065169045316],[-0.104088251171788,51.5065130554332],[-0.103811032453166,51.5047308941155],[-0.103105856050377,51.5036480636073],[-0.104581847674069,51.5035799597474],[-0.104582963732753,51.5035397762397],[-0.110063790211711,51.5021272947389],[-0.112292436146959,51.498843898727],[-0.11150373161189,51.4964694313193]]]},"properties":{"FID":24,"x":531409,"y":179930,"Market":"Waterloo","Shape_Leng":7026.63172142,"Shape__Area":3051948.3209152222,"Shape__Length":9958.4615197341336}},{"type":"Feature","id":25,"geometry":{"type":"Polygon","coordinates":[[[-0.106107539431378,51.5326630553558],[-0.10632847497908,51.5319025670499],[-0.108087744054103,51.5318479773024],[-0.107912009331699,51.5309485752167],[-0.11067550277221,51.5304285485387],[-0.111604383735255,51.531140855666],[-0.113460969348182,51.5314400673053],[-0.115763957740398,51.5312470305261],[-0.115873871082215,51.5308940529182],[-0.12018374788164,51.530917978482],[-0.120125068916764,51.5305330785388],[-0.122477004709935,51.5307347227293],[-0.124126827191276,51.5302293621954],[-0.125358735617112,51.5306973846766],[-0.126757660737383,51.5303378402192],[-0.127949738189841,51.5328409655382],[-0.129718723540236,51.5341939371005],[-0.130045145067356,51.5350011307976],[-0.131521666391734,51.5355824831452],[-0.129401964329134,51.5363179684995],[-0.131403096175916,51.539540019956],[-0.131764621839807,51.5405368249146],[-0.131037466006205,51.5411541771236],[-0.125231057067595,51.5411193346896],[-0.123033617607291,51.5415043866182],[-0.115521795494431,51.5434256622645],[-0.115212250644788,51.542991869779],[-0.108831822430602,51.5444613476131],[-0.109116731252072,51.5449231674702],[-0.104465580621991,51.5460203961244],[-0.103165232889125,51.5460037847469],[-0.10290719491104,51.5431847743579],[-0.103171460694284,51.5427773985581],[-0.102257640677522,51.5395570764979],[-0.102388876045723,51.5378655839296],[-0.103147242850923,51.5376466277897],[-0.103012081941984,51.5371600639858],[-0.104201205121456,51.5345455027728],[-0.104959526960556,51.534414815991],[-0.106107539431378,51.5326630553558]]]},"properties":{"FID":25,"x":530813,"y":183204,"Market":"Kings Cross","Shape_Leng":7911.34592664,"Shape__Area":6332475.2387466431,"Shape__Length":11197.102178753834}},{"type":"Feature","id":26,"geometry":{"type":"Polygon","coordinates":[[[0.0218902721184122,51.4939383217962],[0.0208429207642098,51.4908697864116],[0.0197596396956783,51.4900108322342],[0.0195557723810111,51.4850670583981],[0.0201340310607065,51.4844067482729],[0.0148249049454421,51.4838993552711],[0.00839600237367222,51.4831662845964],[0.00884184577461156,51.4842265879867],[0.00787278130388813,51.4857615319692],[0.00711377687935055,51.4863507057206],[0.00529920309577392,51.4868155266153],[0.00237531556842896,51.4869705886218],[0.0017394921838445,51.4863827926318],[0.000249572759628336,51.4869646180227],[0.00128468254212066,51.4877913989539],[0.00225045279620417,51.4892168396855],[0.00261947340999313,51.4919841741304],[0.000937351777395179,51.4953983918224],[-0.000285600300173883,51.4952908742745],[-0.00100060899086429,51.4962779548638],[-0.00119543002500677,51.4974777709824],[-0.00226143331843787,51.4997816739851],[-0.00203365392991373,51.5023196570266],[-0.000757953017057389,51.5037936908262],[0.00216150984584829,51.5048627032512],[0.00413219604405413,51.5048060279759],[0.00563525995931968,51.5039704112056],[0.0114590797727487,51.4988537220217],[0.015457765063843,51.4960558385062],[0.017767520854477,51.4951324748838],[0.0216558611291475,51.4944094919046],[0.0218902721184122,51.4939383217962]]]},"properties":{"FID":26,"x":539710,"y":178583,"Market":"Greenwich","Shape_Leng":8210.9106029,"Shape__Area":6044677.5059757233,"Shape__Length":11379.53085023679}}]}